[{"OBJECT_NAME":"STARLINK-1407","OBJECT_ID":"2020-035AY","EPOCH":"2026-03-09T21:23:00.001536","MEAN_MOTION":15.59976169,"ECCENTRICITY":0.00103838,"INCLINATION":53.0348,"RA_OF_ASC_NODE":314.7811,"ARG_OF_PERICENTER":106.6316,"MEAN_ANOMALY":253.5837,"EPHEMERIS_TYPE":0,"CLASSIFICATION_TYPE":"U","NORAD_CAT_ID":45703,"ELEMENT_SET_NO":999,"REV_AT_EPOCH":32032,"BSTAR":0.0017348745,"MEAN_MOTION_DOT":0.00145077,"MEAN_MOTION_DDOT":0},{"OBJECT_NAME":"CZ-2D R\/B","OBJECT_ID":"2005-024B","EPOCH":"2026-03-09T23:10:57.439776","MEAN_MOTION":15.60174792,"ECCENTRICITY":0.00057619,"INCLINATION":97.3602,"RA_OF_ASC_NODE":84.1217,"ARG_OF_PERICENTER":46.1998,"MEAN_ANOMALY":313.9735,"EPHEMERIS_TYPE":0,"CLASSIFICATION_TYPE":"U","NORAD_CAT_ID":28738,"ELEMENT_SET_NO":999,"REV_AT_EPOCH":13982,"BSTAR":0.00056460986,"MEAN_MOTION_DOT":0.00046014,"MEAN_MOTION_DDOT":0}]
